IRIDIUM 57              
1 25273U 98019B   24202.61072273  .00000853  00000+0  29112-3 0  9997
2 25273  86.3954 284.1215 0002231  94.0123 266.1328 14.35290832377211
IRIDIUM 63              
1 25286U 98021B   24202.55189113  .00000783  00000+0  26384-3 0  9999
2 25286  86.3978 221.0473 0002078  91.5109 268.6326 14.35838107376242
IRIDIUM 69              
1 25319U 98026A   24202.59164733  .00001044  00000+0  32490-3 0  9992
2 25319  86.3961 235.3146 0004100  64.2917 295.8705 14.40089736375321
IRIDIUM 71              
1 25320U 98026B   24202.58449993  .00000890  00000+0  27417-3 0  9998
2 25320  86.3962 230.0723 0004430  95.9572 264.2132 14.40395769375848
IRIDIUM 73              
1 25344U 98032C   24202.48106836  .00001429  00000+0  35922-3 0  9995
2 25344  86.4448 187.5178 0002808  79.5333 280.6188 14.50641393382450
IRIDIUM 82              
1 25467U 98051A   24202.58897381  .00024285  00000+0  11721-2 0  9990
2 25467  86.3756 269.9099 0126571  98.0896 263.4724 15.11641618373530
